{
    "links": {
        "self": "http://www.neowsapp.com/rest/v1/neo/3836880?api_key=iIulBulltgU6a56xZRHN4H3l9WmuAYTsLGpBGhQ2"
    },
    "id": "3836880",
    "neo_reference_id": "3836880",
    "name": "(2018 XR3)",
    "designation": "2018 XR3",
    "nasa_jpl_url": "http://ssd.jpl.nasa.gov/sbdb.cgi?sstr=3836880",
    "absolute_magnitude_h": 21.5,
    "estimated_diameter": {
        "kilometers": {
            "estimated_diameter_min": 0.1332155667,
            "estimated_diameter_max": 0.2978790628
        },
        "meters": {
            "estimated_diameter_min": 133.2155666981,
            "estimated_diameter_max": 297.8790627982
        },
        "miles": {
            "estimated_diameter_min": 0.0827762899,
            "estimated_diameter_max": 0.1850934111
        },
        "feet": {
            "estimated_diameter_min": 437.0589598459,
            "estimated_diameter_max": 977.2935443908
        }
    },
    "is_potentially_hazardous_asteroid": false,
    "close_approach_data": [
        {
            "close_approach_date": "2016-06-03",
            "close_approach_date_full": "2016-Jun-03 20:28",
            "epoch_date_close_approach": 1464985680000,
            "relative_velocity": {
                "kilometers_per_second": "15.7263439328",
                "kilometers_per_hour": "56614.838158157",
                "miles_per_hour": "35178.2587433282"
            },
            "miss_distance": {
                "astronomical": "0.1614405201",
                "lunar": "62.8003623189",
                "kilometers": "24151157.938652187",
                "miles": "15006833.6669547006"
            },
            "orbiting_body": "Earth"
        },
        {
            "close_approach_date": "2018-08-18",
            "close_approach_date_full": "2018-Aug-18 01:20",
            "epoch_date_close_approach": 1534555200000,
            "relative_velocity": {
                "kilometers_per_second": "14.8341146389",
                "kilometers_per_hour": "53402.8126999943",
                "miles_per_hour": "33182.431035727"
            },
            "miss_distance": {
                "astronomical": "0.1205271587",
                "lunar": "46.8850647343",
                "kilometers": "18030606.218671969",
                "miles": "11203699.1818484122"
            },
            "orbiting_body": "Venus"
        },
        {
            "close_approach_date": "2018-10-30",
            "close_approach_date_full": "2018-Oct-30 05:07",
            "epoch_date_close_approach": 1540876020000,
            "relative_velocity": {
                "kilometers_per_second": "12.2722394646",
                "kilometers_per_hour": "44180.0620726036",
                "miles_per_hour": "27451.7724583908"
            },
            "miss_distance": {
                "astronomical": "0.2654730134",
                "lunar": "103.2690022126",
                "kilometers": "39714197.347121458",
                "miles": "24677257.9318458004"
            },
            "orbiting_body": "Earth"
        },
        {
            "close_approach_date": "2022-12-01",
            "close_approach_date_full": "2022-Dec-01 19:38",
            "epoch_date_close_approach": 1669923480000,
            "relative_velocity": {
                "kilometers_per_second": "17.866627623",
                "kilometers_per_hour": "64319.8594427939",
                "miles_per_hour": "39965.8593298849"
            },
            "miss_distance": {
                "astronomical": "0.0687903561",
                "lunar": "26.7594485229",
                "kilometers": "10290890.749101507",
                "miles": "6394462.9963025166"
            },
            "orbiting_body": "Venus"
        },
        {
            "close_approach_date": "2027-03-18",
            "close_approach_date_full": "2027-Mar-18 21:50",
            "epoch_date_close_approach": 1805406600000,
            "relative_velocity": {
                "kilometers_per_second": "21.5221380166",
                "kilometers_per_hour": "77479.696859841",
                "miles_per_hour": "48142.8705293829"
            },
            "miss_distance": {
                "astronomical": "0.1036298583",
                "lunar": "40.3120148787",
                "kilometers": "15502806.070081821",
                "miles": "9632997.0039422898"
            },
            "orbiting_body": "Venus"
        }
    ],
    "orbital_data": {
        "orbit_id": "3",
        "orbit_determination_date": "2019-01-14 07:16:42",
        "first_observation_date": "2018-12-10",
        "last_observation_date": "2019-01-12",
        "data_arc_in_days": 33,
        "observations_used": 39,
        "orbit_uncertainty": "7",
        "minimum_orbit_intersection": ".0816008",
        "jupiter_tisserand_invariant": "4.001",
        "epoch_osculation": "2459000.5",
        "eccentricity": ".6034720402888937",
        "semi_major_axis": "1.664193332255298",
        "inclination": "14.11319558627904",
        "ascending_node_longitude": "259.0782171624645",
        "orbital_period": "784.1589313700692",
        "perihelion_distance": ".6598991866040205",
        "perihelion_argument": "64.47839944605415",
        "aphelion_distance": "2.668487477906575",
        "perihelion_time": "2459155.358919896321",
        "mean_anomaly": "288.9057244234003",
        "mean_motion": ".4590906072714291",
        "equinox": "J2000",
        "orbit_class": {
            "orbit_class_type": "APO",
            "orbit_class_description": "Near-Earth asteroid orbits which cross the Earth’s orbit similar to that of 1862 Apollo",
            "orbit_class_range": "a (semi-major axis) > 1.0 AU; q (perihelion) < 1.017 AU"
        }
    },
    "is_sentry_object": false
}